[{"OBJECT_NAME":"STARLINK-34333","OBJECT_ID":"2025-120J","EPOCH":"2026-03-09T12:24:30.929760","MEAN_MOTION":15.30191213,"ECCENTRICITY":0.00015241,"INCLINATION":53.1602,"RA_OF_ASC_NODE":117.2177,"ARG_OF_PERICENTER":66.8946,"MEAN_ANOMALY":293.2215,"EPHEMERIS_TYPE":0,"CLASSIFICATION_TYPE":"U","NORAD_CAT_ID":64264,"ELEMENT_SET_NO":999,"REV_AT_EPOCH":4384,"BSTAR":0.00097034954,"MEAN_MOTION_DOT":0.00028482,"MEAN_MOTION_DDOT":0},{"OBJECT_NAME":"CZ-2D R\/B","OBJECT_ID":"2022-004B","EPOCH":"2026-03-09T22:50:52.634112","MEAN_MOTION":14.60339325,"ECCENTRICITY":0.04874226,"INCLINATION":98.4783,"RA_OF_ASC_NODE":157.6846,"ARG_OF_PERICENTER":297.671,"MEAN_ANOMALY":57.5829,"EPHEMERIS_TYPE":0,"CLASSIFICATION_TYPE":"U","NORAD_CAT_ID":51103,"ELEMENT_SET_NO":999,"REV_AT_EPOCH":21718,"BSTAR":0.00037005679,"MEAN_MOTION_DOT":0.00010482,"MEAN_MOTION_DDOT":0}]
